ONEWEB-0258             
1 48976U 21060K   24167.93760943  .00000035  00000+0  58023-4 0  9993
2 48976  87.9107  14.3690 0001811  83.7975 276.3363 13.16593220143371
ONEWEB-0259             
1 48977U 21060L   24167.85527739  .00000084  00000+0  18648-3 0  9991
2 48977  87.9105  14.3702 0001919  78.6401 281.4945 13.16593982143390
ONEWEB-0260             
1 48978U 21060M   24167.84657130  .00000006  00000+0 -18606-4 0  9990
2 48978  87.9107  14.4007 0002122 102.6490 257.4879 13.16593074143374
ONEWEB-0261             
1 48979U 21060N   24167.81569586  .00000022  00000+0  24035-4 0  9995
2 48979  87.9110  14.4004 0002460  86.5444 273.5969 13.16594298143424
ONEWEB-0262             
1 48980U 21060P   24167.87268507  .00000131  00000+0  30915-3 0  9996
2 48980  87.9107  14.3533 0002139  74.9739 285.1629 13.16595102143392
ONEWEB-0263             
1 48981U 21060Q   24167.82836231 -.00000012  00000+0 -65118-4 0  9991
2 48981  87.9110  14.3783 0002322  80.6021 279.5372 13.16594650143351
ONEWEB-0264             
1 48982U 21060R   24167.94156787  .00000074  00000+0  16103-3 0  9991
2 48982  87.9109  14.3674 0001898  86.0008 274.1340 13.16593683143374
ONEWEB-0266             
1 48984U 21060T   24167.81094764  .00000044  00000+0  80999-4 0  9997
2 48984  87.9107  14.3708 0001766  83.7642 276.3690 13.16594541143347
