<?xml version="1.0" encoding="UTF-8"?>
<ndm xmlns:xsi="http://www.w3.org/2001/XMLSchema-instance" xsi:noNamespaceSchemaLocation="https://sanaregistry.org/r/ndmxml_unqualified/ndmxml-2.0.0-master-2.0.xsd">
<omm id="CCSDS_OMM_VERS" version="2.0">
<header><CREATION_DATE/><ORIGINATOR/></header><body><segment><metadata><OBJECT_NAME>ONEWEB-0258</OBJECT_NAME><OBJECT_ID>2021-060K</OBJECT_ID><CENTER_NAME>EARTH</CENTER_NAME><REF_FRAME>TEME</REF_FRAME><TIME_SYSTEM>UTC</TIME_SYSTEM><MEAN_ELEMENT_THEORY>SGP4</MEAN_ELEMENT_THEORY></metadata><data><meanElements><EPOCH>2024-06-15T22:30:09.454752</EPOCH><MEAN_MOTION>13.16593220</MEAN_MOTION><ECCENTRICITY>.0001811</ECCENTRICITY><INCLINATION>87.9107</INCLINATION><RA_OF_ASC_NODE>14.3690</RA_OF_ASC_NODE><ARG_OF_PERICENTER>83.7975</ARG_OF_PERICENTER><MEAN_ANOMALY>276.3363</MEAN_ANOMALY></meanElements><tleParameters><EPHEMERIS_TYPE>0</EPHEMERIS_TYPE><CLASSIFICATION_TYPE>U</CLASSIFICATION_TYPE><NORAD_CAT_ID>48976</NORAD_CAT_ID><ELEMENT_SET_NO>999</ELEMENT_SET_NO><REV_AT_EPOCH>14337</REV_AT_EPOCH><BSTAR>.58023E-4</BSTAR><MEAN_MOTION_DOT>.35E-6</MEAN_MOTION_DOT><MEAN_MOTION_DDOT>0</MEAN_MOTION_DDOT></tleParameters></data></segment></body></omm>
<omm id="CCSDS_OMM_VERS" version="2.0">
<header><CREATION_DATE/><ORIGINATOR/></header><body><segment><metadata><OBJECT_NAME>ONEWEB-0259</OBJECT_NAME><OBJECT_ID>2021-060L</OBJECT_ID><CENTER_NAME>EARTH</CENTER_NAME><REF_FRAME>TEME</REF_FRAME><TIME_SYSTEM>UTC</TIME_SYSTEM><MEAN_ELEMENT_THEORY>SGP4</MEAN_ELEMENT_THEORY></metadata><data><meanElements><EPOCH>2024-06-15T20:31:35.966496</EPOCH><MEAN_MOTION>13.16593982</MEAN_MOTION><ECCENTRICITY>.0001919</ECCENTRICITY><INCLINATION>87.9105</INCLINATION><RA_OF_ASC_NODE>14.3702</RA_OF_ASC_NODE><ARG_OF_PERICENTER>78.6401</ARG_OF_PERICENTER><MEAN_ANOMALY>281.4945</MEAN_ANOMALY></meanElements><tleParameters><EPHEMERIS_TYPE>0</EPHEMERIS_TYPE><CLASSIFICATION_TYPE>U</CLASSIFICATION_TYPE><NORAD_CAT_ID>48977</NORAD_CAT_ID><ELEMENT_SET_NO>999</ELEMENT_SET_NO><REV_AT_EPOCH>14339</REV_AT_EPOCH><BSTAR>.18648E-3</BSTAR><MEAN_MOTION_DOT>.84E-6</MEAN_MOTION_DOT><MEAN_MOTION_DDOT>0</MEAN_MOTION_DDOT></tleParameters></data></segment></body></omm>
<omm id="CCSDS_OMM_VERS" version="2.0">
<header><CREATION_DATE/><ORIGINATOR/></header><body><segment><metadata><OBJECT_NAME>ONEWEB-0260</OBJECT_NAME><OBJECT_ID>2021-060M</OBJECT_ID><CENTER_NAME>EARTH</CENTER_NAME><REF_FRAME>TEME</REF_FRAME><TIME_SYSTEM>UTC</TIME_SYSTEM><MEAN_ELEMENT_THEORY>SGP4</MEAN_ELEMENT_THEORY></metadata><data><meanElements><EPOCH>2024-06-15T20:19:03.760320</EPOCH><MEAN_MOTION>13.16593074</MEAN_MOTION><ECCENTRICITY>.0002122</ECCENTRICITY><INCLINATION>87.9107</INCLINATION><RA_OF_ASC_NODE>14.4007</RA_OF_ASC_NODE><ARG_OF_PERICENTER>102.6490</ARG_OF_PERICENTER><MEAN_ANOMALY>257.4879</MEAN_ANOMALY></meanElements><tleParameters><EPHEMERIS_TYPE>0</EPHEMERIS_TYPE><CLASSIFICATION_TYPE>U</CLASSIFICATION_TYPE><NORAD_CAT_ID>48978</NORAD_CAT_ID><ELEMENT_SET_NO>999</ELEMENT_SET_NO><REV_AT_EPOCH>14337</REV_AT_EPOCH><BSTAR>-.18606E-4</BSTAR><MEAN_MOTION_DOT>.6E-7</MEAN_MOTION_DOT><MEAN_MOTION_DDOT>0</MEAN_MOTION_DDOT></tleParameters></data></segment></body></omm>
<omm id="CCSDS_OMM_VERS" version="2.0">
<header><CREATION_DATE/><ORIGINATOR/></header><body><segment><metadata><OBJECT_NAME>ONEWEB-0261</OBJECT_NAME><OBJECT_ID>2021-060N</OBJECT_ID><CENTER_NAME>EARTH</CENTER_NAME><REF_FRAME>TEME</REF_FRAME><TIME_SYSTEM>UTC</TIME_SYSTEM><MEAN_ELEMENT_THEORY>SGP4</MEAN_ELEMENT_THEORY></metadata><data><meanElements><EPOCH>2024-06-15T19:34:36.122304</EPOCH><MEAN_MOTION>13.16594298</MEAN_MOTION><ECCENTRICITY>.000246</ECCENTRICITY><INCLINATION>87.9110</INCLINATION><RA_OF_ASC_NODE>14.4004</RA_OF_ASC_NODE><ARG_OF_PERICENTER>86.5444</ARG_OF_PERICENTER><MEAN_ANOMALY>273.5969</MEAN_ANOMALY></meanElements><tleParameters><EPHEMERIS_TYPE>0</EPHEMERIS_TYPE><CLASSIFICATION_TYPE>U</CLASSIFICATION_TYPE><NORAD_CAT_ID>48979</NORAD_CAT_ID><ELEMENT_SET_NO>999</ELEMENT_SET_NO><REV_AT_EPOCH>14342</REV_AT_EPOCH><BSTAR>.24035E-4</BSTAR><MEAN_MOTION_DOT>.22E-6</MEAN_MOTION_DOT><MEAN_MOTION_DDOT>0</MEAN_MOTION_DDOT></tleParameters></data></segment></body></omm>
<omm id="CCSDS_OMM_VERS" version="2.0">
<header><CREATION_DATE/><ORIGINATOR/></header><body><segment><metadata><OBJECT_NAME>ONEWEB-0262</OBJECT_NAME><OBJECT_ID>2021-060P</OBJECT_ID><CENTER_NAME>EARTH</CENTER_NAME><REF_FRAME>TEME</REF_FRAME><TIME_SYSTEM>UTC</TIME_SYSTEM><MEAN_ELEMENT_THEORY>SGP4</MEAN_ELEMENT_THEORY></metadata><data><meanElements><EPOCH>2024-06-15T20:56:39.990048</EPOCH><MEAN_MOTION>13.16595102</MEAN_MOTION><ECCENTRICITY>.0002139</ECCENTRICITY><INCLINATION>87.9107</INCLINATION><RA_OF_ASC_NODE>14.3533</RA_OF_ASC_NODE><ARG_OF_PERICENTER>74.9739</ARG_OF_PERICENTER><MEAN_ANOMALY>285.1629</MEAN_ANOMALY></meanElements><tleParameters><EPHEMERIS_TYPE>0</EPHEMERIS_TYPE><CLASSIFICATION_TYPE>U</CLASSIFICATION_TYPE><NORAD_CAT_ID>48980</NORAD_CAT_ID><ELEMENT_SET_NO>999</ELEMENT_SET_NO><REV_AT_EPOCH>14339</REV_AT_EPOCH><BSTAR>.30915E-3</BSTAR><MEAN_MOTION_DOT>.131E-5</MEAN_MOTION_DOT><MEAN_MOTION_DDOT>0</MEAN_MOTION_DDOT></tleParameters></data></segment></body></omm>
<omm id="CCSDS_OMM_VERS" version="2.0">
<header><CREATION_DATE/><ORIGINATOR/></header><body><segment><metadata><OBJECT_NAME>ONEWEB-0263</OBJECT_NAME><OBJECT_ID>2021-060Q</OBJECT_ID><CENTER_NAME>EARTH</CENTER_NAME><REF_FRAME>TEME</REF_FRAME><TIME_SYSTEM>UTC</TIME_SYSTEM><MEAN_ELEMENT_THEORY>SGP4</MEAN_ELEMENT_THEORY></metadata><data><meanElements><EPOCH>2024-06-15T19:52:50.503584</EPOCH><MEAN_MOTION>13.16594650</MEAN_MOTION><ECCENTRICITY>.0002322</ECCENTRICITY><INCLINATION>87.9110</INCLINATION><RA_OF_ASC_NODE>14.3783</RA_OF_ASC_NODE><ARG_OF_PERICENTER>80.6021</ARG_OF_PERICENTER><MEAN_ANOMALY>279.5372</MEAN_ANOMALY></meanElements><tleParameters><EPHEMERIS_TYPE>0</EPHEMERIS_TYPE><CLASSIFICATION_TYPE>U</CLASSIFICATION_TYPE><NORAD_CAT_ID>48981</NORAD_CAT_ID><ELEMENT_SET_NO>999</ELEMENT_SET_NO><REV_AT_EPOCH>14335</REV_AT_EPOCH><BSTAR>-.65118E-4</BSTAR><MEAN_MOTION_DOT>-.12E-6</MEAN_MOTION_DOT><MEAN_MOTION_DDOT>0</MEAN_MOTION_DDOT></tleParameters></data></segment></body></omm>
<omm id="CCSDS_OMM_VERS" version="2.0">
<header><CREATION_DATE/><ORIGINATOR/></header><body><segment><metadata><OBJECT_NAME>ONEWEB-0264</OBJECT_NAME><OBJECT_ID>2021-060R</OBJECT_ID><CENTER_NAME>EARTH</CENTER_NAME><REF_FRAME>TEME</REF_FRAME><TIME_SYSTEM>UTC</TIME_SYSTEM><MEAN_ELEMENT_THEORY>SGP4</MEAN_ELEMENT_THEORY></metadata><data><meanElements><EPOCH>2024-06-15T22:35:51.463968</EPOCH><MEAN_MOTION>13.16593683</MEAN_MOTION><ECCENTRICITY>.0001898</ECCENTRICITY><INCLINATION>87.9109</INCLINATION><RA_OF_ASC_NODE>14.3674</RA_OF_ASC_NODE><ARG_OF_PERICENTER>86.0008</ARG_OF_PERICENTER><MEAN_ANOMALY>274.1340</MEAN_ANOMALY></meanElements><tleParameters><EPHEMERIS_TYPE>0</EPHEMERIS_TYPE><CLASSIFICATION_TYPE>U</CLASSIFICATION_TYPE><NORAD_CAT_ID>48982</NORAD_CAT_ID><ELEMENT_SET_NO>999</ELEMENT_SET_NO><REV_AT_EPOCH>14337</REV_AT_EPOCH><BSTAR>.16103E-3</BSTAR><MEAN_MOTION_DOT>.74E-6</MEAN_MOTION_DOT><MEAN_MOTION_DDOT>0</MEAN_MOTION_DDOT></tleParameters></data></segment></body></omm>
<omm id="CCSDS_OMM_VERS" version="2.0">
<header><CREATION_DATE/><ORIGINATOR/></header><body><segment><metadata><OBJECT_NAME>ONEWEB-0266</OBJECT_NAME><OBJECT_ID>2021-060T</OBJECT_ID><CENTER_NAME>EARTH</CENTER_NAME><REF_FRAME>TEME</REF_FRAME><TIME_SYSTEM>UTC</TIME_SYSTEM><MEAN_ELEMENT_THEORY>SGP4</MEAN_ELEMENT_THEORY></metadata><data><meanElements><EPOCH>2024-06-15T19:27:45.876096</EPOCH><MEAN_MOTION>13.16594541</MEAN_MOTION><ECCENTRICITY>.0001766</ECCENTRICITY><INCLINATION>87.9107</INCLINATION><RA_OF_ASC_NODE>14.3708</RA_OF_ASC_NODE><ARG_OF_PERICENTER>83.7642</ARG_OF_PERICENTER><MEAN_ANOMALY>276.3690</MEAN_ANOMALY></meanElements><tleParameters><EPHEMERIS_TYPE>0</EPHEMERIS_TYPE><CLASSIFICATION_TYPE>U</CLASSIFICATION_TYPE><NORAD_CAT_ID>48984</NORAD_CAT_ID><ELEMENT_SET_NO>999</ELEMENT_SET_NO><REV_AT_EPOCH>14334</REV_AT_EPOCH><BSTAR>.80999E-4</BSTAR><MEAN_MOTION_DOT>.44E-6</MEAN_MOTION_DOT><MEAN_MOTION_DDOT>0</MEAN_MOTION_DDOT></tleParameters></data></segment></body></omm>

</ndm>
